start=new Date('2023-05-29T00:00:00.000Z').valueOf();
sats=[{"CLASSIFICATION_TYPE":"U","RCS_SIZE":"LARGE","MEAN_MOTION_DDOT":"0.0000000000000","PERIOD":"95.592","BSTAR":"0.00009134900000","MEAN_ELEMENT_THEORY":"SGP4","GP_ID":"232704215","REV_AT_EPOCH":"14498","MEAN_MOTION_DOT":"0.00001080","PERIAPSIS":"546.464","LAUNCH_DATE":"2020-10-18","APOAPSIS":"547.953","TLE_LINE1":"1 46689U 20073V   23148.38183510  .00001080  00000-0  91349-4 0  9991","ELEMENT_SET_NO":"999","MEAN_ANOMALY":"269.7716","ARG_OF_PERICENTER":"90.3397","OBJECT_ID":"2020-073V","EPHEMERIS_TYPE":"0","TLE_LINE2":"2 46689  53.0539 139.0038 0001075  90.3397 269.7716 15.06401535144982","MEAN_MOTION":"15.06401535","ECCENTRICITY":"0.00010750","TIME_SYSTEM":"UTC","SITE":"AFETR","DECAY_DATE":null,"FILE":"3919546","EPOCH":"2023-05-28T09:09:50.552640","INCLINATION":"53.0539","NORAD_CAT_ID":"46689","OBJECT_TYPE":"PAYLOAD","RA_OF_ASC_NODE":"139.0038","REF_FRAME":"TEME","CENTER_NAME":"EARTH","COUNTRY_CODE":"US","SEMIMAJOR_AXIS":"6925.344","OBJECT_NAME":"STARLINK-1788"},{"ARG_OF_PERICENTER":"96.9483","ELEMENT_SET_NO":"999","MEAN_ANOMALY":"263.1669","TIME_SYSTEM":"UTC","ECCENTRICITY":"0.00014310","OBJECT_ID":"2020-073W","EPHEMERIS_TYPE":"0","TLE_LINE2":"2 46690  53.0544 114.2949 0001431  96.9483 263.1669 15.06392410144076","MEAN_MOTION":"15.06392410","EPOCH":"2023-05-28T07:34:58.226880","INCLINATION":"53.0544","FILE":"3919546","DECAY_DATE":null,"SITE":"AFETR","COUNTRY_CODE":"US","CENTER_NAME":"EARTH","OBJECT_NAME":"STARLINK-1789","SEMIMAJOR_AXIS":"6925.372","REF_FRAME":"TEME","NORAD_CAT_ID":"46690","RA_OF_ASC_NODE":"114.2949","OBJECT_TYPE":"PAYLOAD","MEAN_MOTION_DDOT":"0.0000000000000","PERIOD":"95.593","CLASSIFICATION_TYPE":"U","RCS_SIZE":"LARGE","REV_AT_EPOCH":"14407","GP_ID":"232704966","MEAN_ELEMENT_THEORY":"SGP4","BSTAR":"0.00002180200000","MEAN_MOTION_DOT":"0.00000043","TLE_LINE1":"1 46690U 20073W   23148.31595170  .00000043  00000-0  21802-4 0  9990","APOAPSIS":"548.228","PERIAPSIS":"546.246","LAUNCH_DATE":"2020-10-18"},{"MEAN_MOTION_DOT":"0.00001103","APOAPSIS":"548.128","TLE_LINE1":"1 46691U 20073X   23148.64675864  .00001103  00000-0  92897-4 0  9996","LAUNCH_DATE":"2020-10-18","PERIAPSIS":"546.292","MEAN_MOTION_DDOT":"0.0000000000000","PERIOD":"95.592","CLASSIFICATION_TYPE":"U","RCS_SIZE":"LARGE","MEAN_ELEMENT_THEORY":"SGP4","GP_ID":"232703714","REV_AT_EPOCH":"14398","BSTAR":"0.00009289700000","INCLINATION":"53.0544","EPOCH":"2023-05-28T15:31:19.946496","SITE":"AFETR","FILE":"3919546","DECAY_DATE":null,"CENTER_NAME":"EARTH","COUNTRY_CODE":"US","OBJECT_NAME":"STARLINK-1790","SEMIMAJOR_AXIS":"6925.345","NORAD_CAT_ID":"46691","OBJECT_TYPE":"PAYLOAD","RA_OF_ASC_NODE":"122.8132","REF_FRAME":"TEME","ARG_OF_PERICENTER":"92.5681","ELEMENT_SET_NO":"999","MEAN_ANOMALY":"267.5459","TIME_SYSTEM":"UTC","EPHEMERIS_TYPE":"0","OBJECT_ID":"2020-073X","MEAN_MOTION":"15.06401104","TLE_LINE2":"2 46691  53.0544 122.8132 0001326  92.5681 267.5459 15.06401104143986","ECCENTRICITY":"0.00013260"},{"EPOCH":"2023-05-28T16:46:19.066656","INCLINATION":"53.0539","FILE":"3919546","DECAY_DATE":null,"SITE":"AFETR","SEMIMAJOR_AXIS":"6925.345","OBJECT_NAME":"STARLINK-1791","CENTER_NAME":"EARTH","COUNTRY_CODE":"US","REF_FRAME":"TEME","OBJECT_TYPE":"PAYLOAD","RA_OF_ASC_NODE":"137.5759","NORAD_CAT_ID":"46692","ARG_OF_PERICENTER":"84.7406","MEAN_ANOMALY":"275.3732","ELEMENT_SET_NO":"999","TIME_SYSTEM":"UTC","ECCENTRICITY":"0.00013060","MEAN_MOTION":"15.06401203","TLE_LINE2":"2 46692  53.0539 137.5759 0001306  84.7406 275.3732 15.06401203143784","EPHEMERIS_TYPE":"0","OBJECT_ID":"2020-073Y","MEAN_MOTION_DOT":"0.00001210","TLE_LINE1":"1 46692U 20073Y   23148.69883179  .00001210  00000-0  10011-3 0  9998","APOAPSIS":"548.114","PERIAPSIS":"546.305","LAUNCH_DATE":"2020-10-18","PERIOD":"95.592","MEAN_MOTION_DDOT":"0.0000000000000","RCS_SIZE":"LARGE","CLASSIFICATION_TYPE":"U","REV_AT_EPOCH":"14378","GP_ID":"232703464","MEAN_ELEMENT_THEORY":"SGP4","BSTAR":"0.00010011000000"},{"TIME_SYSTEM":"UTC","ECCENTRICITY":"0.00013550","MEAN_MOTION":"15.06393636","TLE_LINE2":"2 46693  53.0549 122.7923 0001355 106.1545 253.9593 15.06393636143981","OBJECT_ID":"2020-073Z","EPHEMERIS_TYPE":"0","ARG_OF_PERICENTER":"106.1545","MEAN_ANOMALY":"253.9593","ELEMENT_SET_NO":"999","OBJECT_NAME":"STARLINK-1792","SEMIMAJOR_AXIS":"6925.368","COUNTRY_CODE":"US","CENTER_NAME":"EARTH","REF_FRAME":"TEME","OBJECT_TYPE":"PAYLOAD","RA_OF_ASC_NODE":"122.7923","NORAD_CAT_ID":"46693","EPOCH":"2023-05-28T15:36:39.359520","INCLINATION":"53.0549","FILE":"3919546","DECAY_DATE":null,"SITE":"AFETR","REV_AT_EPOCH":"14398","GP_ID":"232704716","MEAN_ELEMENT_THEORY":"SGP4","BSTAR":"0.00009037400000","PERIOD":"95.593","MEAN_MOTION_DDOT":"0.0000000000000","RCS_SIZE":"LARGE","CLASSIFICATION_TYPE":"U","TLE_LINE1":"1 46693U 20073Z   23148.65045555  .00001065  00000-0  90374-4 0  9992","APOAPSIS":"548.171","PERIAPSIS":"546.295","LAUNCH_DATE":"2020-10-18","MEAN_MOTION_DOT":"0.00001065"},{"INCLINATION":"53.0546","EPOCH":"2023-05-28T03:26:50.574624","DECAY_DATE":null,"FILE":"3919252","SITE":"AFETR","OBJECT_NAME":"STARLINK-1793","SEMIMAJOR_AXIS":"6925.391","COUNTRY_CODE":"US","CENTER_NAME":"EARTH","REF_FRAME":"TEME","OBJECT_TYPE":"PAYLOAD","RA_OF_ASC_NODE":"105.0712","NORAD_CAT_ID":"46694","ARG_OF_PERICENTER":"90.6018","MEAN_ANOMALY":"269.5117","ELEMENT_SET_NO":"999","TIME_SYSTEM":"UTC","ECCENTRICITY":"0.00012710","MEAN_MOTION":"15.06385990","TLE_LINE2":"2 46694  53.0546 105.0712 0001271  90.6018 269.5117 15.06385990144191","EPHEMERIS_TYPE":"0","OBJECT_ID":"2020-073AA","MEAN_MOTION_DOT":"0.00000130","TLE_LINE1":"1 46694U 20073AA  23148.14364091  .00000130  00000-0  27616-4 0  9997","APOAPSIS":"548.137","LAUNCH_DATE":"2020-10-18","PERIAPSIS":"546.376","PERIOD":"95.593","MEAN_MOTION_DDOT":"0.0000000000000","RCS_SIZE":"LARGE","CLASSIFICATION_TYPE":"U","GP_ID":"232671175","REV_AT_EPOCH":"14419","MEAN_ELEMENT_THEORY":"SGP4","BSTAR":"0.00002761600000"},{"PERIOD":"95.592","MEAN_MOTION_DDOT":"0.0000000000000","RCS_SIZE":"LARGE","CLASSIFICATION_TYPE":"U","GP_ID":"232703214","REV_AT_EPOCH":"14430","MEAN_ELEMENT_THEORY":"SGP4","BSTAR":"0.00011637000000","MEAN_MOTION_DOT":"0.00001453","TLE_LINE1":"1 46696U 20073AC  23148.89186931  .00001453  00000-0  11637-3 0  9990","APOAPSIS":"548.084","LAUNCH_DATE":"2020-10-18","PERIAPSIS":"546.288","ARG_OF_PERICENTER":"93.5581","MEAN_ANOMALY":"266.5556","ELEMENT_SET_NO":"999","TIME_SYSTEM":"UTC","ECCENTRICITY":"0.00012970","TLE_LINE2":"2 46696  53.0541 101.7096 0001297  93.5581 266.5556 15.06409071144305","MEAN_MOTION":"15.06409071","EPHEMERIS_TYPE":"0","OBJECT_ID":"2020-073AC","INCLINATION":"53.0541","EPOCH":"2023-05-28T21:24:17.508384","FILE":"3919546","DECAY_DATE":null,"SITE":"AFETR","OBJECT_NAME":"STARLINK-1795","SEMIMAJOR_AXIS":"6925.321","CENTER_NAME":"EARTH","COUNTRY_CODE":"US","REF_FRAME":"TEME","OBJECT_TYPE":"PAYLOAD","RA_OF_ASC_NODE":"101.7096","NORAD_CAT_ID":"46696"},{"PERIOD":"95.592","MEAN_MOTION_DDOT":"0.0000000000000","RCS_SIZE":"LARGE","CLASSIFICATION_TYPE":"U","MEAN_ELEMENT_THEORY":"SGP4","GP_ID":"232669678","REV_AT_EPOCH":"14392","BSTAR":"0.00001090000000","MEAN_MOTION_DOT":"-0.00000119","APOAPSIS":"548.162","TLE_LINE1":"1 46698U 20073AE  23148.21824911 -.00000119  00000-0  10900-4 0  9997","LAUNCH_DATE":"2020-10-18","PERIAPSIS":"546.294","ARG_OF_PERICENTER":"92.6807","MEAN_ANOMALY":"267.4336","ELEMENT_SET_NO":"999","TIME_SYSTEM":"UTC","TLE_LINE2":"2 46698  53.0541 124.7238 0001349  92.6807 267.4336 15.06395201143921","MEAN_MOTION":"15.06395201","OBJECT_ID":"2020-073AE","EPHEMERIS_TYPE":"0","ECCENTRICITY":"0.00013490","EPOCH":"2023-05-28T05:14:16.723104","INCLINATION":"53.0541","SITE":"AFETR","DECAY_DATE":null,"FILE":"3919252","SEMIMAJOR_AXIS":"6925.363","OBJECT_NAME":"STARLINK-1797","COUNTRY_CODE":"US","CENTER_NAME":"EARTH","RA_OF_ASC_NODE":"124.7238","OBJECT_TYPE":"PAYLOAD","NORAD_CAT_ID":"46698","REF_FRAME":"TEME"},{"MEAN_MOTION":"15.06402089","TLE_LINE2":"2 46699  53.0535 121.4367 0001313  86.1338 273.9801 15.06402089144035","OBJECT_ID":"2020-073AF","EPHEMERIS_TYPE":"0","ECCENTRICITY":"0.00013130","TIME_SYSTEM":"UTC","MEAN_ANOMALY":"273.9801","ELEMENT_SET_NO":"999","ARG_OF_PERICENTER":"86.1338","RA_OF_ASC_NODE":"121.4367","OBJECT_TYPE":"PAYLOAD","NORAD_CAT_ID":"46699","REF_FRAME":"TEME","OBJECT_NAME":"STARLINK-1799","SEMIMAJOR_AXIS":"6925.342","CENTER_NAME":"EARTH","COUNTRY_CODE":"US","SITE":"AFETR","FILE":"3919546","DECAY_DATE":null,"INCLINATION":"53.0535","EPOCH":"2023-05-28T22:51:52.803936","BSTAR":"0.00002122900000","MEAN_ELEMENT_THEORY":"SGP4","REV_AT_EPOCH":"14403","GP_ID":"232704216","RCS_SIZE":"LARGE","CLASSIFICATION_TYPE":"U","PERIOD":"95.592","MEAN_MOTION_DDOT":"0.0000000000000","LAUNCH_DATE":"2020-10-18","PERIAPSIS":"546.298","APOAPSIS":"548.116","TLE_LINE1":"1 46699U 20073AF  23148.95269449  .00000035  00000-0  21229-4 0  9990","MEAN_MOTION_DOT":"0.00000035"},{"APOAPSIS":"548.068","TLE_LINE1":"1 46700U 20073AG  23148.69145034  .00000829  00000-0  74514-4 0  9993","LAUNCH_DATE":"2020-10-18","PERIAPSIS":"546.334","MEAN_MOTION_DOT":"0.00000829","MEAN_ELEMENT_THEORY":"SGP4","REV_AT_EPOCH":"14378","GP_ID":"232704967","BSTAR":"0.00007451400000","MEAN_MOTION_DDOT":"0.0000000000000","PERIOD":"95.592","CLASSIFICATION_TYPE":"U","RCS_SIZE":"LARGE","CENTER_NAME":"EARTH","COUNTRY_CODE":"US","SEMIMAJOR_AXIS":"6925.336","OBJECT_NAME":"STARLINK-1800","NORAD_CAT_ID":"46700","OBJECT_TYPE":"PAYLOAD","RA_OF_ASC_NODE":"137.6113","REF_FRAME":"TEME","INCLINATION":"53.0544","EPOCH":"2023-05-28T16:35:41.309376","SITE":"AFETR","DECAY_DATE":null,"FILE":"3919546","TIME_SYSTEM":"UTC","EPHEMERIS_TYPE":"0","OBJECT_ID":"2020-073AG","MEAN_MOTION":"15.06404017","TLE_LINE2":"2 46700  53.0544 137.6113 0001252  91.7866 268.3266 15.06404017143783","ECCENTRICITY":"0.00012520","ARG_OF_PERICENTER":"91.7866","ELEMENT_SET_NO":"999","MEAN_ANOMALY":"268.3266"}];
